NORAD_CAT_ID,OBJECT_NAME,OBJECT_TYPE,EPOCH,MEAN_MOTION,ECCENTRICITY,INCLINATION,RA_OF_ASC_NODE,ARG_OF_PERICENTER,MEAN_ANOMALY,BSTAR,MEAN_MOTION_DOT,MEAN_MOTION_DDOT,TLE_LINE0,TLE_LINE1,TLE_LINE2,SEMIMAJOR_AXIS,PERIOD,APOGEE,PERIGEE,DECAYED
53634.0,STARLINK-4592,PAYLOAD,2024-06-23 06:59:14,15.08836383,0.0001391,53.2168,147.062,95.7083,264.4068,4.2e-05,3.81e-06,0.0,0 STARLINK-4592,1 53634U 22104AY  24175.29113901  .00000381  00000-0  42000-4 0  9997,2 53634  53.2168 147.0620 0001391  95.7083 264.4068 15.08836383100943,6917.891,95.438,540.719,538.794,0.0
53634.0,STARLINK-4592,PAYLOAD,2024-06-24 06:50:01,15.08842346,0.0001408,53.2169,142.6017,95.8963,264.2189,6.4587e-05,7.4e-06,0.0,0 STARLINK-4592,1 53634U 22104AY  24176.28473590  .00000740  00000-0  64587-4 0  9993,2 53634  53.2169 142.6017 0001408  95.8963 264.2189 15.08842346102111,6917.873,95.437,540.712,538.764,0.0
53634.0,STARLINK-4592,PAYLOAD,2024-06-25 05:05:26,15.08833567,0.0001526,53.2176,138.4377,91.1827,268.934,-5.2629e-05,-1.125e-05,0.0,0 STARLINK-4592,1 53634U 22104AY  24177.21210819 -.00001125  00000-0 -52629-4 0  9994,2 53634  53.2176 138.4377 0001526  91.1827 268.9340 15.08833567101237,6917.9,95.438,540.821,538.709,0.0
53634.0,STARLINK-4592,PAYLOAD,2024-06-26 04:56:12,15.08848005,0.0001343,53.2167,133.9756,97.104,263.0105,1.156e-08,-2.88e-06,0.0,0 STARLINK-4592,1 53634U 22104AY  24178.20569699 -.00000288  00000-0  11560-7 0  9997,2 53634  53.2167 133.9756 0001343  97.1040 263.0105 15.08848005101382,6917.856,95.437,540.65,538.792,0.0
53634.0,STARLINK-4592,PAYLOAD,2024-06-27 03:11:36,15.08838309,0.0001448,53.2166,129.8153,92.4387,267.6771,3.3586e-05,2.47e-06,0.0,0 STARLINK-4592,1 53634U 22104AY  24179.13306198  .00000247  00000-0  33586-4 0  9996,2 53634  53.2166 129.8153 0001448  92.4387 267.6771 15.08838309101525,6917.886,95.438,540.752,538.749,0.0
53634.0,STARLINK-4592,PAYLOAD,2024-06-27 14:19:18,15.08836893,0.0001427,53.2168,127.7342,88.2452,271.8704,-5.1936e-07,-2.96e-06,0.0,0 STARLINK-4592,1 53634U 22104AY  24179.59674431 -.00000296  00000-0 -51936-6 0  9991,2 53634  53.2168 127.7342 0001427  88.2452 271.8704 15.08836893102617,6917.89,95.438,540.742,538.768,0.0
53634.0,STARLINK-4592,PAYLOAD,2024-06-28 03:02:23,15.08839787,0.000141,53.2167,125.3546,95.543,264.5723,-6.0036e-05,-1.243e-05,0.0,0 STARLINK-4592,1 53634U 22104AY  24180.12666491 -.00001243  00000-0 -60036-4 0  9991,2 53634  53.2167 125.3546 0001410  95.5430 264.5723 15.08839787102698,6917.881,95.438,540.721,538.771,0.0
53634.0,STARLINK-4592,PAYLOAD,2024-06-29 02:53:09,15.0885437,0.0001227,53.2158,120.8934,91.3855,268.7277,0.00015266,2.143e-05,0.0,0 STARLINK-4592,1 53634U 22104AY  24181.12024604  .00002143  00000-0  15266-3 0  9998,2 53634  53.2158 120.8934 0001227  91.3855 268.7277 15.08854370101829,6917.836,95.437,540.55,538.853,0.0
53634.0,STARLINK-4592,PAYLOAD,2024-06-29 12:25:29,15.08840194,0.0001173,53.2159,119.1091,85.6226,274.49,-0.00010718,-1.993e-05,0.0,0 STARLINK-4592,1 53634U 22104AY  24181.51770286 -.00001993  00000-0 -10718-3 0  9996,2 53634  53.2159 119.1091 0001173  85.6226 274.4900 15.08840194101885,6917.88,95.438,540.556,538.933,0.0
53634.0,STARLINK-4592,PAYLOAD,2024-06-29 20:22:27,15.08814726,0.0001554,53.2176,117.6246,98.0114,262.1054,-0.00014444,-2.584e-05,0.0,0 STARLINK-4592,1 53634U 22104AY  24181.84892392 -.00002584  00000-0 -14444-3 0  9992,2 53634  53.2176 117.6246 0001554  98.0114 262.1054 15.08814726101938,6917.958,95.439,540.898,538.748,0.0
53634.0,STARLINK-4592,PAYLOAD,2024-06-30 05:54:45,15.08825456,0.0001338,53.2169,115.8406,104.0908,256.0233,-9.1026e-05,-1.736e-05,0.0,0 STARLINK-4592,1 53634U 22104AY  24182.24635996 -.00001736  00000-0 -91026-4 0  9992,2 53634  53.2169 115.8406 0001338 104.0908 256.0233 15.08825456101996,6917.925,95.438,540.715,538.864,0.0
53634.0,STARLINK-4592,PAYLOAD,2024-06-30 12:16:17,15.08831938,0.0001388,53.2178,114.6519,105.0699,255.0446,-8.0769e-05,-1.573e-05,0.0,0 STARLINK-4592,1 53634U 22104AY  24182.51131662 -.00001573  00000-0 -80769-4 0  9994,2 53634  53.2178 114.6519 0001388 105.0699 255.0446 15.08831938103057,6917.905,95.438,540.73,538.81,0.0
53634.0,STARLINK-4592,PAYLOAD,2024-07-01 02:34:44,15.08852942,0.0001295,53.2173,111.9766,109.6587,250.4544,-2.7322e-05,-7.23e-06,0.0,0 STARLINK-4592,1 53634U 22104AY  24183.10746230 -.00000723  00000-0 -27322-4 0  9995,2 53634  53.2173 111.9766 0001295 109.6587 250.4544 15.08852942102122,6917.841,95.437,540.602,538.81,0.0
53634.0,STARLINK-4592,PAYLOAD,2024-07-01 12:07:03,15.08852819,0.0001017,53.2159,110.1893,89.248,270.8628,-3.0923e-05,-7.8e-06,0.0,0 STARLINK-4592,1 53634U 22104AY  24183.50490007 -.00000780  00000-0 -30923-4 0  9991,2 53634  53.2159 110.1893 0001017  89.2480 270.8628 15.08852819103207,6917.841,95.437,540.41,539.003,0.0
53634.0,STARLINK-4592,PAYLOAD,2024-07-02 04:00:55,15.0883251,0.0001211,53.2173,107.2157,113.3669,246.7451,0.00013434,1.85e-05,0.0,0 STARLINK-4592,1 53634U 22104AY  24184.16731387  .00001850  00000-0  13434-3 0  9997,2 53634  53.2173 107.2157 0001211 113.3669 246.7451 15.08832510102286,6917.903,95.438,540.606,538.931,0.0
53634.0,STARLINK-4592,PAYLOAD,2024-07-02 11:57:51,15.08833094,0.0001183,53.2174,105.728,92.2124,267.9004,7.3379e-05,8.8e-06,0.0,0 STARLINK-4592,1 53634U 22104AY  24184.49851659  .00000880  00000-0  73379-4 0  9995,2 53634  53.2174 105.7280 0001183  92.2124 267.9004 15.08833094103352,6917.901,95.438,540.585,538.948,0.0
53634.0,STARLINK-4592,PAYLOAD,2024-07-03 03:51:42,15.08853156,9.71e-05,53.2158,102.7557,116.6431,243.466,2.2744e-05,7.4e-07,0.0,0 STARLINK-4592,1 53634U 22104AY  24185.16090453  .00000074  00000-0  22744-4 0  9992,2 53634  53.2158 102.7557 0000971 116.6431 243.4660 15.08853156102430,6917.84,95.437,540.377,539.033,0.0
53634.0,STARLINK-4592,PAYLOAD,2024-07-03 11:48:38,15.08850569,0.0001024,53.2167,101.265,95.0903,265.0206,-0.0001385,-2.492e-05,0.0,0 STARLINK-4592,1 53634U 22104AY  24185.49211007 -.00002492  00000-0 -13850-3 0  9993,2 53634  53.2167 101.2650 0001024  95.0903 265.0206 15.08850569102488,6917.848,95.437,540.421,539.005,0.0
53634.0,STARLINK-4592,PAYLOAD,2024-07-04 11:39:26,15.08835616,0.0001759,53.2179,96.8059,91.0965,269.0228,-4.5299e-05,-1.009e-05,0.0,0 STARLINK-4592,1 53634U 22104AY  24186.48571870 -.00001009  00000-0 -45299-4 0  9996,2 53634  53.2179  96.8059 0001759  91.0965 269.0228 15.08835616102633,6917.894,95.438,540.976,538.542,0.0
53634.0,STARLINK-4592,PAYLOAD,2024-07-04 21:11:44,15.08835948,0.0001245,53.2179,95.0209,95.2106,264.9028,-4.5191e-06,-3.6e-06,0.0,0 STARLINK-4592,1 53634U 22104AY  24186.88315503 -.00000360  00000-0 -45191-5 0  9990,2 53634  53.2179  95.0209 0001245  95.2106 264.9028 15.08835948103714,6917.893,95.438,540.619,538.896,0.0
53634.0,STARLINK-4592,PAYLOAD,2024-07-05 03:33:16,15.08846761,0.0001341,53.2181,93.831,94.0936,266.021,-2.4299e-05,-6.75e-06,0.0,0 STARLINK-4592,1 53634U 22104AY  24187.14810930 -.00000675  00000-0 -24299-4 0  9998,2 53634  53.2181  93.8310 0001341  94.0936 266.0210 15.08846761102733,6917.86,95.437,540.652,538.797,0.0
53634.0,STARLINK-4592,PAYLOAD,2024-07-05 21:02:31,15.08838042,0.0001456,53.2179,90.5592,100.55,259.5656,-2.443e-05,-6.77e-06,0.0,0 STARLINK-4592,1 53634U 22104AY  24187.87675413 -.00000677  00000-0 -24430-4 0  9992,2 53634  53.2179  90.5592 0001456 100.5500 259.5656 15.08838042102849,6917.886,95.438,540.759,538.744,0.0
53634.0,STARLINK-4592,PAYLOAD,2024-07-05 22:37:54,15.08838073,0.0001417,53.218,90.2618,100.9551,259.1601,-2.0251e-05,-6.1e-06,0.0,0 STARLINK-4592,1 53634U 22104AY  24187.94299383 -.00000610  00000-0 -20251-4 0  9992,2 53634  53.2180  90.2618 0001417 100.9551 259.1601 15.08838073103878,6917.886,95.438,540.732,538.771,0.0
53634.0,STARLINK-4592,PAYLOAD,2024-07-06 00:13:17,15.08842529,0.0001462,53.2179,89.9633,102.1248,257.9908,-2.2132e-05,-6.4e-06,0.0,0 STARLINK-4592,1 53634U 22104AY  24188.00923097 -.00000640  00000-0 -22132-4 0  9999,2 53634  53.2179  89.9633 0001462 102.1248 257.9908 15.08842529103883,6917.873,95.437,540.749,538.726,0.0
53634.0,STARLINK-4592,PAYLOAD,2024-07-06 22:28:42,15.0883535,0.0001456,53.2178,85.8032,99.5916,260.524,-1.3678e-05,-5.06e-06,0.0,0 STARLINK-4592,1 53634U 22104AY  24188.93659734 -.00000506  00000-0 -13678-4 0  9991,2 53634  53.2178  85.8032 0001456  99.5916 260.5240 15.08835350104024,6917.895,95.438,540.767,538.752,0.0
53634.0,STARLINK-4592,PAYLOAD,2024-07-07 03:14:51,15.0884202,0.0001293,53.217,84.9141,84.8179,275.2961,-4.3478e-05,-9.8e-06,0.0,0 STARLINK-4592,1 53634U 22104AY  24189.13531473 -.00000980  00000-0 -43478-4 0  9990,2 53634  53.2170  84.9141 0001293  84.8179 275.2961 15.08842020103039,6917.874,95.437,540.634,538.845,0.0
53634.0,STARLINK-4592,PAYLOAD,2024-07-07 20:44:06,15.08824126,0.0001679,53.2173,81.645,114.6892,245.4275,0.00014532,2.025e-05,0.0,0 STARLINK-4592,1 53634U 22104AY  24189.86395910  .00002025  00000-0  14532-3 0  9992,2 53634  53.2173  81.6450 0001679 114.6892 245.4275 15.08824126103147,6917.929,95.439,540.955,538.632,0.0
53634.0,STARLINK-4592,PAYLOAD,2024-07-07 22:19:29,15.08840313,0.0001318,53.2165,81.3446,86.7331,273.3812,-2.349e-05,-6.62e-06,0.0,0 STARLINK-4592,1 53634U 22104AY  24189.93019742 -.00000662  00000-0 -23490-4 0  9997,2 53634  53.2165  81.3446 0001318  86.7331 273.3812 15.08840313103151,6917.879,95.438,540.656,538.833,0.0
53634.0,STARLINK-4592,PAYLOAD,2024-07-08 09:27:10,15.08838904,0.0001307,53.2158,79.2617,84.9665,275.1477,8.8913e-06,-1.46e-06,0.0,0 STARLINK-4592,1 53634U 22104AY  24190.39387677 -.00000146  00000-0  88913-5 0  9992,2 53634  53.2158  79.2617 0001307  84.9665 275.1477 15.08838904104248,6917.884,95.438,540.653,538.845,0.0
53634.0,STARLINK-4592,PAYLOAD,2024-07-08 22:10:16,15.08835519,0.0001469,53.2157,76.8832,84.8478,275.2682,4.0773e-06,-2.23e-06,0.0,0 STARLINK-4592,1 53634U 22104AY  24190.92380085 -.00000223  00000-0  40773-5 0  9995,2 53634  53.2157  76.8832 0001469  84.8478 275.2682 15.08835519104326,6917.894,95.438,540.775,538.743,0.0
